[{"OBJECT_NAME":"STARLINK-5621","OBJECT_ID":"2023-014AV","EPOCH":"2026-03-09T12:37:34.475808","MEAN_MOTION":14.98333744,"ECCENTRICITY":0.0003527,"INCLINATION":69.9991,"RA_OF_ASC_NODE":104.894,"ARG_OF_PERICENTER":271.7777,"MEAN_ANOMALY":88.2979,"EPHEMERIS_TYPE":0,"CLASSIFICATION_TYPE":"U","NORAD_CAT_ID":55434,"ELEMENT_SET_NO":999,"REV_AT_EPOCH":17104,"BSTAR":0.00010844512,"MEAN_MOTION_DOT":1.201e-5,"MEAN_MOTION_DDOT":0},{"OBJECT_NAME":"PEGASUS DEB","OBJECT_ID":"1994-029ADZ","EPOCH":"2026-03-09T09:44:41.678880","MEAN_MOTION":14.71787317,"ECCENTRICITY":0.01294019,"INCLINATION":81.9867,"RA_OF_ASC_NODE":205.808,"ARG_OF_PERICENTER":256.1704,"MEAN_ANOMALY":159.4284,"EPHEMERIS_TYPE":0,"CLASSIFICATION_TYPE":"U","NORAD_CAT_ID":25445,"ELEMENT_SET_NO":999,"REV_AT_EPOCH":52180,"BSTAR":0.00051371535,"MEAN_MOTION_DOT":3.68e-5,"MEAN_MOTION_DDOT":0}]
